GLOBALSTAR M035         
1 25851U 99037A   24290.85612500 -.00000016  00000+0  17969-2 0  9994
2 25851  51.9937 237.6149 0013761 310.5851  90.6779 11.04533895 69372
GLOBALSTAR M032         
1 25852U 99037B   24290.83551067 -.00000049  00000+0  57043-3 0  9997
2 25852  51.9945  79.6416 0011582 117.4476 242.7502 11.19064191107549
GLOBALSTAR M051         
1 25853U 99037C   24291.20657383 -.00000092  00000+0 -49500-3 0  9996
2 25853  51.9787 267.0516 0001202 120.4775 239.6154 11.42200323104643
GLOBALSTAR M030         
1 25854U 99037D   24290.83444967 -.00000053  00000+0  45525-3 0  9996
2 25854  51.9867  89.5246 0003308 342.9175  17.1530 11.55103067121922
GLOBALSTAR M048         
1 25872U 99041A   24290.79656477 -.00000042  00000+0  75461-3 0  9997
2 25872  51.9351 193.6644 0013682 119.6099 280.4582 11.33850531 97373
GLOBALSTAR M026         
1 25873U 99041B   24290.96880880 -.00000112  00000+0 -17580-2 0  9990
2 25873  52.0055 357.8790 0001475 187.1442 344.0169 11.06830083121558
GLOBALSTAR M043         
1 25874U 99041C   24290.95074354 -.00000034  00000+0  10223-2 0  9990
2 25874  51.9403 291.2499 0012900 257.9032 114.0456 11.25683588 95480
GLOBALSTAR M028         
1 25875U 99041D   24290.86241798 -.00000087  00000+0  82479-4 0  9991
2 25875  51.9620 198.6080 0062686 263.2853  96.0871 12.50566960159737
